{
  "type": "FeatureCollection",
  "features": [
    {
      "type": "Feature",
      "properties": {
        "norad_id": 38121,
        "name": "FENGYUN 1C DEB",
        "group": "fengyun-1c-debris",
        "lat": 31.249911262622668,
        "lon": 125.81190012828698,
        "alt_km": 877.6659072315542,
        "timestamp": "2025-12-06T03:35:02.161285+00:00",
        "meta_object_name": "FENGYUN 1C DEB",
        "meta_object_id": "1999-025EPS",
        "meta_epoch": "2025-11-29T04:12:17.244576",
        "meta_mean_motion": 14.2162433,
        "meta_eccentricity": 0.02065546,
        "meta_inclination": 99.115,
        "meta_ra_of_asc_node": 124.1974,
        "meta_arg_of_pericenter": 166.4816,
        "meta_mean_anomaly": 194.2011,
        "meta_ephemeris_type": 0,
        "meta_classification_type": "U",
        "meta_norad_cat_id": 38121,
        "meta_element_set_no": 999,
        "meta_rev_at_epoch": 83727,
        "meta_bstar": 0.001349076,
        "meta_mean_motion_dot": 3.628e-05,
        "meta_mean_motion_ddot": 0,
        "tle_line1": "1 38121U 99025EPS 25333.17519959  .00003628  00000+0  13491-2 0  9990",
        "tle_line2": "2 38121  99.1150 124.1974 0206554 166.4816 194.2011 14.21624330837275"
      },
      "geometry": {
        "type": "Point",
        "coordinates": [
          125.81190012828698,
          31.249911262622668
        ]
      }
    },
    {
      "type": "Feature",
      "properties": {
        "norad_id": 38122,
        "name": "FENGYUN 1C DEB",
        "group": "fengyun-1c-debris",
        "lat": -15.989543440780386,
        "lon": 160.33682807703912,
        "alt_km": 601.2688105944671,
        "timestamp": "2025-12-06T03:35:02.161295+00:00",
        "meta_object_name": "FENGYUN 1C DEB",
        "meta_object_id": "1999-025EPT",
        "meta_epoch": "2025-12-03T06:25:51.305088",
        "meta_mean_motion": 14.42594537,
        "meta_eccentricity": 0.0227364,
        "meta_inclination": 98.317,
        "meta_ra_of_asc_node": 339.9263,
        "meta_arg_of_pericenter": 185.5048,
        "meta_mean_anomaly": 174.3639,
        "meta_ephemeris_type": 0,
        "meta_classification_type": "U",
        "meta_norad_cat_id": 38122,
        "meta_element_set_no": 999,
        "meta_rev_at_epoch": 67602,
        "meta_bstar": 0.0006206,
        "meta_mean_motion_dot": 2.764e-05,
        "meta_mean_motion_ddot": 0,
        "tle_line1": "1 38122U 99025EPT 25337.26795492  .00002764  00000+0  62060-3 0  9990",
        "tle_line2": "2 38122  98.3170 339.9263 0227364 185.5048 174.3639 14.42594537676024"
      },
      "geometry": {
        "type": "Point",
        "coordinates": [
          160.33682807703912,
          -15.989543440780386
        ]
      }
    },
    {
      "type": "Feature",
      "properties": {
        "norad_id": 38124,
        "name": "FENGYUN 1C DEB",
        "group": "fengyun-1c-debris",
        "lat": 20.37921169741279,
        "lon": -68.70923823486567,
        "alt_km": 955.2804670752485,
        "timestamp": "2025-12-06T03:35:02.161306+00:00",
        "meta_object_name": "FENGYUN 1C DEB",
        "meta_object_id": "1999-025EPV",
        "meta_epoch": "2025-11-17T02:51:17.993664",
        "meta_mean_motion": 13.40908773,
        "meta_eccentricity": 0.03570409,
        "meta_inclination": 97.805,
        "meta_ra_of_asc_node": 279.4801,
        "meta_arg_of_pericenter": 12.4947,
        "meta_mean_anomaly": 348.4759,
        "meta_ephemeris_type": 0,
        "meta_classification_type": "U",
        "meta_norad_cat_id": 38124,
        "meta_element_set_no": 999,
        "meta_rev_at_epoch": 54238,
        "meta_bstar": 0.00079426358,
        "meta_mean_motion_dot": 6.08e-06,
        "meta_mean_motion_ddot": 0,
        "tle_line1": "1 38124U 99025EPV 25321.11895826  .00000608  00000+0  79426-3 0  9990",
        "tle_line2": "2 38124  97.8050 279.4801 0357040  12.4947 348.4759 13.40908773542380"
      },
      "geometry": {
        "type": "Point",
        "coordinates": [
          -68.70923823486567,
          20.37921169741279
        ]
      }
    },
    {
      "type": "Feature",
      "properties": {
        "norad_id": 38130,
        "name": "FENGYUN 1C DEB",
        "group": "fengyun-1c-debris",
        "lat": -60.54299978266771,
        "lon": 48.021203410759476,
        "alt_km": 892.3216483562628,
        "timestamp": "2025-12-06T03:35:02.161316+00:00",
        "meta_object_name": "FENGYUN 1C DEB",
        "meta_object_id": "1999-025EQB",
        "meta_epoch": "2025-11-28T09:19:02.490528",
        "meta_mean_motion": 13.7720595,
        "meta_eccentricity": 0.02085156,
        "meta_inclination": 98.6035,
        "meta_ra_of_asc_node": 25.4413,
        "meta_arg_of_pericenter": 263.5047,
        "meta_mean_anomaly": 94.2329,
        "meta_ephemeris_type": 0,
        "meta_classification_type": "U",
        "meta_norad_cat_id": 38130,
        "meta_element_set_no": 999,
        "meta_rev_at_epoch": 69085,
        "meta_bstar": 0.0016964005,
        "meta_mean_motion_dot": 1.933e-05,
        "meta_mean_motion_ddot": 0,
        "tle_line1": "1 38130U 99025EQB 25332.38822327  .00001933  00000+0  16964-2 0  9993",
        "tle_line2": "2 38130  98.6035  25.4413 0208515 263.5047  94.2329 13.77205950690851"
      },
      "geometry": {
        "type": "Point",
        "coordinates": [
          48.021203410759476,
          -60.54299978266771
        ]
      }
    },
    {
      "type": "Feature",
      "properties": {
        "norad_id": 38135,
        "name": "FENGYUN 1C DEB",
        "group": "fengyun-1c-debris",
        "lat": -69.70205424914779,
        "lon": -167.32374630947666,
        "alt_km": 966.3177190039696,
        "timestamp": "2025-12-06T03:35:02.161327+00:00",
        "meta_object_name": "FENGYUN 1C DEB",
        "meta_object_id": "1999-025EQG",
        "meta_epoch": "2025-12-04T09:59:10.811040",
        "meta_mean_motion": 14.2524882,
        "meta_eccentricity": 0.0223375,
        "meta_inclination": 98.6606,
        "meta_ra_of_asc_node": 35.2993,
        "meta_arg_of_pericenter": 95.5388,
        "meta_mean_anomaly": 267.1312,
        "meta_ephemeris_type": 0,
        "meta_classification_type": "U",
        "meta_norad_cat_id": 38135,
        "meta_element_set_no": 999,
        "meta_rev_at_epoch": 60922,
        "meta_bstar": 0.00083169,
        "meta_mean_motion_dot": 2.494e-05,
        "meta_mean_motion_ddot": 0,
        "tle_line1": "1 38135U 99025EQG 25338.41609735  .00002494  00000+0  83169-3 0  9999",
        "tle_line2": "2 38135  98.6606  35.2993 0223375  95.5388 267.1312 14.25248820609225"
      },
      "geometry": {
        "type": "Point",
        "coordinates": [
          -167.32374630947666,
          -69.70205424914779
        ]
      }
    },
    {
      "type": "Feature",
      "properties": {
        "norad_id": 38137,
        "name": "FENGYUN 1C DEB",
        "group": "fengyun-1c-debris",
        "lat": -32.15705187307039,
        "lon": 28.66483105991658,
        "alt_km": 895.3667941524336,
        "timestamp": "2025-12-06T03:35:02.161338+00:00",
        "meta_object_name": "FENGYUN 1C DEB",
        "meta_object_id": "1999-025EQJ",
        "meta_epoch": "2025-12-03T09:08:14.061984",
        "meta_mean_motion": 14.06146655,
        "meta_eccentricity": 0.00467474,
        "meta_inclination": 98.8662,
        "meta_ra_of_asc_node": 20.3228,
        "meta_arg_of_pericenter": 95.1511,
        "meta_mean_anomaly": 265.4995,
        "meta_ephemeris_type": 0,
        "meta_classification_type": "U",
        "meta_norad_cat_id": 38137,
        "meta_element_set_no": 999,
        "meta_rev_at_epoch": 63577,
        "meta_bstar": 0.00028746686,
        "meta_mean_motion_dot": 4.34e-06,
        "meta_mean_motion_ddot": 0,
        "tle_line1": "1 38137U 99025EQJ 25337.38071831  .00000434  00000+0  28747-3 0  9999",
        "tle_line2": "2 38137  98.8662  20.3228 0046747  95.1511 265.4995 14.06146655635776"
      },
      "geometry": {
        "type": "Point",
        "coordinates": [
          28.66483105991658,
          -32.15705187307039
        ]
      }
    },
    {
      "type": "Feature",
      "properties": {
        "norad_id": 38143,
        "name": "FENGYUN 1C DEB",
        "group": "fengyun-1c-debris",
        "lat": 53.9680076531818,
        "lon": -131.2819399243174,
        "alt_km": 888.4159683018024,
        "timestamp": "2025-12-06T03:35:02.161348+00:00",
        "meta_object_name": "FENGYUN 1C DEB",
        "meta_object_id": "1999-025EQQ",
        "meta_epoch": "2025-12-02T22:04:03.833184",
        "meta_mean_motion": 14.04865193,
        "meta_eccentricity": 0.00557173,
        "meta_inclination": 99.0286,
        "meta_ra_of_asc_node": 32.8796,
        "meta_arg_of_pericenter": 248.4749,
        "meta_mean_anomaly": 111.0473,
        "meta_ephemeris_type": 0,
        "meta_classification_type": "U",
        "meta_norad_cat_id": 38143,
        "meta_element_set_no": 999,
        "meta_rev_at_epoch": 60145,
        "meta_bstar": 0.00072272115,
        "meta_mean_motion_dot": 1.132e-05,
        "meta_mean_motion_ddot": 0,
        "tle_line1": "1 38143U 99025EQQ 25336.91948881  .00001132  00000+0  72272-3 0  9990",
        "tle_line2": "2 38143  99.0286  32.8796 0055717 248.4749 111.0473 14.04865193601457"
      },
      "geometry": {
        "type": "Point",
        "coordinates": [
          -131.2819399243174,
          53.9680076531818
        ]
      }
    }
  ]
}